{
"type": "FeatureCollection",
"name": "ceam_zonas",
"crs": { "type": "name", "properties": { "name": "urn:ogc:def:crs:OGC:1.3:CRS84" } },
"features": [
{ "type": "Feature", "properties": { "nombre": "Puntal de Nules", "ceam": "mayor", "ubicacion": "Pic de la Font de Cabres (639 m), Nules", "aprox": false, "dnbr_500m": 0.66 }, "geometry": { "type": "Point", "coordinates": [ -0.224488, 39.862488 ] } },
{ "type": "Feature", "properties": { "nombre": "Umbría de Artana", "ceam": "mayor", "ubicacion": "La Umbría (vertientes), Artana", "aprox": false, "dnbr_500m": 0.75 }, "geometry": { "type": "Point", "coordinates": [ -0.263978, 39.873718 ] } },
{ "type": "Feature", "properties": { "nombre": "El Solaig", "ceam": "mayor", "ubicacion": "Solaig (vértice geodésico), Betxí", "aprox": false, "dnbr_500m": 0.43 }, "geometry": { "type": "Point", "coordinates": [ -0.205475, 39.90812 ] } },
{ "type": "Feature", "properties": { "nombre": "Penyes Aragoneses → Betxí", "ceam": "menor", "ubicacion": "Peñas Aragonesas (montaña), Artana; el CEAM sitúa la menor severidad al este, hacia Betxí", "aprox": false, "dnbr_500m": 0.48 }, "geometry": { "type": "Point", "coordinates": [ -0.240296, 39.922729 ] } },
{ "type": "Feature", "properties": { "nombre": "Onda – Tales – l'Alcúdia – Aín", "ceam": "pendiente", "ubicacion": "Centro de lo quemado en esos cuatro municipios; el CEAM no pudo evaluarla por las nubes", "aprox": false, "dnbr_500m": 0.63 }, "geometry": { "type": "Point", "coordinates": [ -0.285607789034266, 39.927055819304691 ] } }
]
}
