{
"type": "FeatureCollection",
"name": "parque_natural",
"crs": { "type": "name", "properties": { "name": "urn:ogc:def:crs:OGC:1.3:CRS84" } },
"xy_coordinate_resolution": 1e-05,
"features": [
{ "type": "Feature", "properties": { "nombre": "Parc Natural de la Serra d'Espadà", "hect_ofi": 31180, "legislacio": "Decreto 161/1998, de 29 de septiembre" }, "geometry": { "type": "Polygon", "coordinates": [ [ [ -0.45498, 39.90345 ], [ -0.45817, 39.90269 ], [ -0.45945, 39.90165 ], [ -0.46093, 39.90179 ], [ -0.46344, 39.90076 ], [ -0.46454, 39.90079 ], [ -0.46885, 39.89884 ], [ -0.4711, 39.89747 ], [ -0.4732, 39.89494 ], [ -0.47412, 39.89457 ], [ -0.47417, 39.89358 ], [ -0.47478, 39.89261 ], [ -0.47458, 39.89165 ], [ -0.47608, 39.89023 ], [ -0.47646, 39.88891 ], [ -0.47611, 39.88778 ], [ -0.47491, 39.8868 ], [ -0.47492, 39.88491 ], [ -0.47597, 39.88331 ], [ -0.47629, 39.88215 ], [ -0.47826, 39.87956 ], [ -0.47729, 39.87872 ], [ -0.47553, 39.8792 ], [ -0.4658, 39.87947 ], [ -0.45977, 39.87907 ], [ -0.45384, 39.88068 ], [ -0.44417, 39.88102 ], [ -0.44195, 39.87657 ], [ -0.43443, 39.87026 ], [ -0.43428, 39.86112 ], [ -0.42886, 39.85662 ], [ -0.42396, 39.84923 ], [ -0.42343, 39.84547 ], [ -0.42099, 39.84243 ], [ -0.4195, 39.83846 ], [ -0.41537, 39.84181 ], [ -0.40466, 39.84828 ], [ -0.40135, 39.84888 ], [ -0.39785, 39.85321 ], [ -0.39744, 39.85301 ], [ -0.39401, 39.84924 ], [ -0.39059, 39.84323 ], [ -0.38737, 39.83848 ], [ -0.37869, 39.83175 ], [ -0.37812, 39.82452 ], [ -0.37724, 39.82002 ], [ -0.3765, 39.81788 ], [ -0.36401, 39.82189 ], [ -0.3563, 39.82369 ], [ -0.34248, 39.82156 ], [ -0.33906, 39.82212 ], [ -0.3327, 39.82383 ], [ -0.33112, 39.82391 ], [ -0.32964, 39.82352 ], [ -0.32655, 39.82455 ], [ -0.32382, 39.82386 ], [ -0.31918, 39.82375 ], [ -0.31629, 39.82305 ], [ -0.31423, 39.82762 ], [ -0.31003, 39.82761 ], [ -0.3088, 39.82687 ], [ -0.30635, 39.82673 ], [ -0.30491, 39.82589 ], [ -0.30259, 39.8253 ], [ -0.2997, 39.82599 ], [ -0.29928, 39.82719 ], [ -0.2978, 39.8278 ], [ -0.29587, 39.82564 ], [ -0.29425, 39.82461 ], [ -0.29339, 39.82441 ], [ -0.29293, 39.82482 ], [ -0.29261, 39.82756 ], [ -0.29014, 39.82836 ], [ -0.28842, 39.82742 ], [ -0.28658, 39.82769 ], [ -0.28629, 39.82798 ], [ -0.28622, 39.82911 ], [ -0.28344, 39.83 ], [ -0.28316, 39.83106 ], [ -0.28341, 39.83185 ], [ -0.27677, 39.83051 ], [ -0.27306, 39.83259 ], [ -0.27135, 39.8331 ], [ -0.27055, 39.8341 ], [ -0.27058, 39.83474 ], [ -0.26984, 39.83507 ], [ -0.26907, 39.83442 ], [ -0.26888, 39.83371 ], [ -0.27009, 39.83231 ], [ -0.27012, 39.83171 ], [ -0.26707, 39.82914 ], [ -0.26594, 39.82887 ], [ -0.2627, 39.82995 ], [ -0.26139, 39.82795 ], [ -0.2608, 39.82785 ], [ -0.25811, 39.82918 ], [ -0.25728, 39.83093 ], [ -0.2554, 39.83171 ], [ -0.2532, 39.83347 ], [ -0.2541, 39.83569 ], [ -0.25542, 39.83767 ], [ -0.25623, 39.84096 ], [ -0.25635, 39.84293 ], [ -0.25415, 39.84796 ], [ -0.25061, 39.85005 ], [ -0.24749, 39.85143 ], [ -0.24598, 39.8526 ], [ -0.24284, 39.85342 ], [ -0.24098, 39.85276 ], [ -0.24005, 39.85334 ], [ -0.23997, 39.85481 ], [ -0.24027, 39.85533 ], [ -0.24275, 39.8577 ], [ -0.24291, 39.85828 ], [ -0.24285, 39.85881 ], [ -0.24121, 39.86015 ], [ -0.24123, 39.86149 ], [ -0.23921, 39.86354 ], [ -0.23598, 39.86102 ], [ -0.22996, 39.86625 ], [ -0.23025, 39.86735 ], [ -0.23153, 39.86752 ], [ -0.2319, 39.86786 ], [ -0.23189, 39.86842 ], [ -0.23402, 39.86796 ], [ -0.23372, 39.86877 ], [ -0.23694, 39.86969 ], [ -0.23662, 39.87003 ], [ -0.23456, 39.87034 ], [ -0.23316, 39.87185 ], [ -0.23374, 39.87219 ], [ -0.23541, 39.87207 ], [ -0.23691, 39.8709 ], [ -0.23657, 39.87149 ], [ -0.23669, 39.87234 ], [ -0.23634, 39.87277 ], [ -0.23415, 39.87481 ], [ -0.23293, 39.87495 ], [ -0.23253, 39.87582 ], [ -0.23463, 39.87599 ], [ -0.23552, 39.87671 ], [ -0.23662, 39.87666 ], [ -0.23733, 39.87705 ], [ -0.23636, 39.87806 ], [ -0.23457, 39.87851 ], [ -0.23566, 39.8801 ], [ -0.23483, 39.88066 ], [ -0.23634, 39.88116 ], [ -0.23587, 39.88185 ], [ -0.23485, 39.88254 ], [ -0.23295, 39.88248 ], [ -0.23294, 39.88308 ], [ -0.23232, 39.88346 ], [ -0.23288, 39.88343 ], [ -0.23338, 39.88396 ], [ -0.23315, 39.88474 ], [ -0.23341, 39.88508 ], [ -0.23167, 39.88516 ], [ -0.23103, 39.88569 ], [ -0.23265, 39.88807 ], [ -0.23172, 39.88865 ], [ -0.23096, 39.89003 ], [ -0.23041, 39.89037 ], [ -0.23053, 39.89072 ], [ -0.23151, 39.8912 ], [ -0.23239, 39.89111 ], [ -0.23362, 39.89006 ], [ -0.23474, 39.88974 ], [ -0.23572, 39.88701 ], [ -0.23739, 39.88654 ], [ -0.23817, 39.88599 ], [ -0.23944, 39.88619 ], [ -0.23998, 39.88598 ], [ -0.23995, 39.88539 ], [ -0.23868, 39.8845 ], [ -0.23847, 39.88399 ], [ -0.24017, 39.88369 ], [ -0.24074, 39.88262 ], [ -0.24158, 39.88231 ], [ -0.24146, 39.88151 ], [ -0.24231, 39.88116 ], [ -0.24277, 39.88027 ], [ -0.24393, 39.88021 ], [ -0.24445, 39.87832 ], [ -0.2441, 39.87702 ], [ -0.24456, 39.87657 ], [ -0.24568, 39.87629 ], [ -0.24538, 39.87514 ], [ -0.24389, 39.87453 ], [ -0.24394, 39.87374 ], [ -0.24339, 39.87284 ], [ -0.24362, 39.87221 ], [ -0.24485, 39.87194 ], [ -0.24518, 39.87086 ], [ -0.24614, 39.87112 ], [ -0.24815, 39.87021 ], [ -0.2486, 39.86924 ], [ -0.24928, 39.86888 ], [ -0.24933, 39.86829 ], [ -0.25012, 39.86997 ], [ -0.2498, 39.87057 ], [ -0.25019, 39.87103 ], [ -0.2524, 39.87095 ], [ -0.25275, 39.87062 ], [ -0.25262, 39.87014 ], [ -0.25364, 39.87008 ], [ -0.25337, 39.8711 ], [ -0.25379, 39.87176 ], [ -0.25333, 39.87214 ], [ -0.25329, 39.87297 ], [ -0.25441, 39.87408 ], [ -0.25522, 39.87423 ], [ -0.25598, 39.87632 ], [ -0.25662, 39.8768 ], [ -0.25736, 39.87676 ], [ -0.25918, 39.87591 ], [ -0.25953, 39.87632 ], [ -0.26084, 39.87648 ], [ -0.26104, 39.87696 ], [ -0.26202, 39.877 ], [ -0.26368, 39.87653 ], [ -0.26419, 39.87596 ], [ -0.26534, 39.8774 ], [ -0.26567, 39.87694 ], [ -0.26726, 39.87628 ], [ -0.26754, 39.877 ], [ -0.26741, 39.87768 ], [ -0.26896, 39.8772 ], [ -0.2699, 39.87766 ], [ -0.27158, 39.87704 ], [ -0.27199, 39.87743 ], [ -0.27351, 39.87689 ], [ -0.27332, 39.87788 ], [ -0.27435, 39.87808 ], [ -0.27524, 39.87779 ], [ -0.27584, 39.87711 ], [ -0.27606, 39.87764 ], [ -0.27577, 39.87867 ], [ -0.27625, 39.87953 ], [ -0.27676, 39.87978 ], [ -0.2782, 39.87945 ], [ -0.27947, 39.87848 ], [ -0.28132, 39.87823 ], [ -0.2827, 39.87729 ], [ -0.28291, 39.87886 ], [ -0.28165, 39.88057 ], [ -0.28314, 39.88031 ], [ -0.28394, 39.88087 ], [ -0.28491, 39.88022 ], [ -0.28552, 39.88076 ], [ -0.28618, 39.88046 ], [ -0.28468, 39.88277 ], [ -0.27998, 39.88666 ], [ -0.27724, 39.89031 ], [ -0.27414, 39.89602 ], [ -0.28181, 39.90865 ], [ -0.27955, 39.91559 ], [ -0.27903, 39.91805 ], [ -0.27992, 39.91925 ], [ -0.27867, 39.92046 ], [ -0.28046, 39.92136 ], [ -0.28022, 39.92202 ], [ -0.27954, 39.92281 ], [ -0.2785, 39.92297 ], [ -0.27528, 39.92225 ], [ -0.27445, 39.92301 ], [ -0.27379, 39.92273 ], [ -0.27302, 39.92301 ], [ -0.27182, 39.92234 ], [ -0.26845, 39.92219 ], [ -0.26174, 39.92506 ], [ -0.26084, 39.92602 ], [ -0.27548, 39.93275 ], [ -0.28794, 39.94595 ], [ -0.28858, 39.94695 ], [ -0.28985, 39.95212 ], [ -0.29238, 39.95326 ], [ -0.29871, 39.95052 ], [ -0.30087, 39.95057 ], [ -0.30067, 39.95168 ], [ -0.29855, 39.95206 ], [ -0.29718, 39.95263 ], [ -0.29626, 39.95311 ], [ -0.2962, 39.95318 ], [ -0.29932, 39.952 ], [ -0.30257, 39.95177 ], [ -0.30486, 39.95055 ], [ -0.30692, 39.94901 ], [ -0.30929, 39.94852 ], [ -0.31027, 39.94624 ], [ -0.31144, 39.94683 ], [ -0.31256, 39.94857 ], [ -0.31801, 39.94685 ], [ -0.32009, 39.94763 ], [ -0.32099, 39.94879 ], [ -0.32197, 39.94924 ], [ -0.3237, 39.94954 ], [ -0.32523, 39.94894 ], [ -0.32566, 39.94964 ], [ -0.32522, 39.95039 ], [ -0.32526, 39.95096 ], [ -0.32714, 39.95165 ], [ -0.32777, 39.95235 ], [ -0.3299, 39.95239 ], [ -0.32998, 39.95266 ], [ -0.32938, 39.95296 ], [ -0.32967, 39.95328 ], [ -0.33344, 39.9536 ], [ -0.33667, 39.9546 ], [ -0.33856, 39.95428 ], [ -0.34256, 39.95456 ], [ -0.34284, 39.95503 ], [ -0.34265, 39.95621 ], [ -0.34348, 39.95802 ], [ -0.34316, 39.95985 ], [ -0.34356, 39.96057 ], [ -0.34525, 39.96134 ], [ -0.34525, 39.96252 ], [ -0.34198, 39.96372 ], [ -0.34005, 39.96395 ], [ -0.33838, 39.96527 ], [ -0.33793, 39.96659 ], [ -0.33874, 39.96765 ], [ -0.3416, 39.96814 ], [ -0.3417, 39.96959 ], [ -0.34389, 39.97085 ], [ -0.3446, 39.9727 ], [ -0.34486, 39.97493 ], [ -0.34455, 39.97602 ], [ -0.34719, 39.97744 ], [ -0.34898, 39.97955 ], [ -0.35006, 39.98016 ], [ -0.35087, 39.98223 ], [ -0.35058, 39.9829 ], [ -0.35097, 39.98336 ], [ -0.35258, 39.98457 ], [ -0.35375, 39.985 ], [ -0.35502, 39.98687 ], [ -0.35736, 39.98798 ], [ -0.35795, 39.98855 ], [ -0.35894, 39.98855 ], [ -0.36, 39.98755 ], [ -0.3599, 39.98891 ], [ -0.36043, 39.98962 ], [ -0.36165, 39.99014 ], [ -0.36395, 39.98983 ], [ -0.3635, 39.99065 ], [ -0.36361, 39.99145 ], [ -0.36485, 39.99202 ], [ -0.36591, 39.99194 ], [ -0.36693, 39.99247 ], [ -0.36734, 39.99398 ], [ -0.36869, 39.99549 ], [ -0.36791, 39.99649 ], [ -0.36972, 39.99724 ], [ -0.37193, 39.99928 ], [ -0.37453, 39.99905 ], [ -0.37519, 39.99926 ], [ -0.37846, 40.00133 ], [ -0.37859, 40.00168 ], [ -0.37819, 40.00233 ], [ -0.37983, 40.002 ], [ -0.38041, 40.00355 ], [ -0.38128, 40.00333 ], [ -0.38221, 40.00354 ], [ -0.38331, 40.00478 ], [ -0.3847, 40.00519 ], [ -0.38527, 40.00583 ], [ -0.38595, 40.00578 ], [ -0.38852, 40.00422 ], [ -0.3892, 40.00419 ], [ -0.39122, 40.00552 ], [ -0.39339, 40.00615 ], [ -0.39466, 40.00713 ], [ -0.39526, 40.00723 ], [ -0.3954, 40.00622 ], [ -0.39802, 40.00508 ], [ -0.39906, 40.00626 ], [ -0.40159, 40.00607 ], [ -0.40157, 40.00713 ], [ -0.40218, 40.00789 ], [ -0.40555, 40.00802 ], [ -0.40691, 40.00859 ], [ -0.40326, 40.01184 ], [ -0.40372, 40.01483 ], [ -0.40227, 40.01896 ], [ -0.40289, 40.01994 ], [ -0.40735, 40.02565 ], [ -0.41115, 40.02947 ], [ -0.41406, 40.03057 ], [ -0.41627, 40.03256 ], [ -0.41639, 40.03389 ], [ -0.4217, 40.03724 ], [ -0.42673, 40.03876 ], [ -0.43226, 40.03887 ], [ -0.43274, 40.03775 ], [ -0.4467, 40.03162 ], [ -0.45129, 40.0284 ], [ -0.45557, 40.02353 ], [ -0.45757, 40.02032 ], [ -0.46557, 40.01203 ], [ -0.46635, 40.00917 ], [ -0.46731, 40.00774 ], [ -0.468, 40.00745 ], [ -0.47382, 40.00717 ], [ -0.47517, 40.00667 ], [ -0.47848, 40.00733 ], [ -0.4822, 40.00899 ], [ -0.48405, 40.00902 ], [ -0.48751, 40.00759 ], [ -0.48858, 40.00543 ], [ -0.4918, 40.00689 ], [ -0.49545, 40.00456 ], [ -0.50262, 40.00425 ], [ -0.504, 40.00539 ], [ -0.50814, 40.00615 ], [ -0.5104, 40.00548 ], [ -0.51325, 40.00561 ], [ -0.52643, 40.00943 ], [ -0.5334, 40.00051 ], [ -0.5293, 39.99248 ], [ -0.52612, 39.98464 ], [ -0.52242, 39.98221 ], [ -0.52151, 39.98065 ], [ -0.5187, 39.97812 ], [ -0.51865, 39.97662 ], [ -0.51914, 39.97498 ], [ -0.51847, 39.97088 ], [ -0.50971, 39.96585 ], [ -0.5125, 39.96354 ], [ -0.51582, 39.95832 ], [ -0.50982, 39.9558 ], [ -0.50713, 39.95502 ], [ -0.50291, 39.95608 ], [ -0.49713, 39.95826 ], [ -0.49282, 39.95688 ], [ -0.48648, 39.95609 ], [ -0.4853, 39.95487 ], [ -0.48627, 39.95319 ], [ -0.48614, 39.94647 ], [ -0.48576, 39.94508 ], [ -0.48619, 39.94385 ], [ -0.48632, 39.94173 ], [ -0.4878, 39.94037 ], [ -0.48805, 39.93903 ], [ -0.48779, 39.93836 ], [ -0.4871, 39.93861 ], [ -0.48557, 39.93849 ], [ -0.483, 39.93729 ], [ -0.47475, 39.93778 ], [ -0.47192, 39.9377 ], [ -0.46856, 39.93715 ], [ -0.46748, 39.93744 ], [ -0.4603, 39.93769 ], [ -0.45824, 39.93712 ], [ -0.45406, 39.93536 ], [ -0.45257, 39.93233 ], [ -0.45138, 39.93207 ], [ -0.45089, 39.93159 ], [ -0.45078, 39.93077 ], [ -0.44997, 39.93004 ], [ -0.45066, 39.92962 ], [ -0.4495, 39.92855 ], [ -0.44923, 39.92792 ], [ -0.4475, 39.92706 ], [ -0.44688, 39.92642 ], [ -0.44591, 39.92615 ], [ -0.44549, 39.92536 ], [ -0.44569, 39.92422 ], [ -0.44478, 39.92394 ], [ -0.44401, 39.92307 ], [ -0.44133, 39.92148 ], [ -0.44042, 39.91943 ], [ -0.43982, 39.91896 ], [ -0.43917, 39.91747 ], [ -0.43932, 39.91692 ], [ -0.44025, 39.9163 ], [ -0.44071, 39.91557 ], [ -0.44339, 39.91484 ], [ -0.44376, 39.91393 ], [ -0.44531, 39.91285 ], [ -0.44643, 39.91066 ], [ -0.44835, 39.90968 ], [ -0.45087, 39.90936 ], [ -0.45261, 39.90824 ], [ -0.45279, 39.90776 ], [ -0.45227, 39.90685 ], [ -0.45243, 39.90567 ], [ -0.45408, 39.90459 ], [ -0.45498, 39.90345 ] ] ] } }
]
}
